C/2019 F2 (ATLAS),e,19.2939,175.4117,11.6422,16.59704,0.0145767,0.86468980,22.3680,11/20.0/2023,2000,g 12.0,4.0
# From MPEC 2021-P47
A/2019 G2,e,159.2181,208.1672,82.6214,416.2883,0.0001160,0.99448472,0.0000,12/07.9587/2019,2000,g 16.5,2.0
# From MPEC 2022-VC5
A/2019 G3,e,156.8040,49.9122,161.8733,17.18481,0.0138353,0.83451394,25.0611,11/20.0/2023,2000,g 17.1,2.0
# From MPC114607
P/2019 GG21 (PANSTARRS),e,6.0866,340.5608,208.5798,7.467804,0.0482964,0.47178525,79.9391,11/20.0/2023,2000,g 12.0,4.0
# From MPEC 2022-M21
C/2019 H1 (NEOWISE),e,104.4134,269.2895,19.3177,243.0405,0.0002601,0.99241454,0.0000,04/27.8655/2019,2000,g 15.5,4.0
# From MPEC 2023-A50
C/2019 J1 (Lemmon),e,24.5342,98.1882,167.7043,67.83024,0.0017643,0.96335334,2.9778,11/20.0/2023,2000,g 12.0,4.0
# From MPEC 2021-R75
C/2019 J2 (Palomar),e,5.2605,25.5361,98.6807,161.0016,0.0004825,0.98930648,0.0000,07/20.3385/2019,2000,g 13.0,4.0
# From MPC117071
C/2019 J3 (ATLAS),h,08/02.4923/2019,131.3285,270.6268,16.5854,1.000513,2.368376,2000,13.5,4.0
# From MPEC 2022-M21
C/2019 JU6 (ATLAS),h,06/02.2909/2019,148.3307,21.7641,94.9609,1.000086,2.041281,2000,14.5,4.0
# From MPEC 2022-O08
C/2019 K1 (ATLAS),e,87.0314,73.3217,265.7348,6518,0.0000019,0.99969080,0.0000,02/12.3801/2020,2000,g 10.0,4.0
# From MPC119997
C/2019 K4 (Ye),e,105.2969,180.1717,139.9297,1452,0.0000178,0.99843513,0.0000,06/15.4149/2019,2000,g 12.5,4.0
# From MPEC 2021-P47
C/2019 K5 (Young),e,15.3145,177.1860,175.1349,169.5437,0.0004465,0.98793381,0.0000,06/22.7806/2019,2000,g 13.0,4.0
# From MPEC 2021-P47
C/2019 K6 (PANSTARRS),e,132.3795,43.0025,187.5472,1329,0.0000203,0.99704928,0.0000,05/19.7521/2020,2000,g 11.5,4.0
# From MPEC 2023-R20
C/2019 K7 (Smith),h,06/17.6643/2020,103.5196,307.9859,27.4098,1.001001,4.478287,2000,6.0,4.0
# From MPEC 2021-R75
C/2019 K8 (ATLAS),e,93.1154,291.0252,85.3616,2289,0.0000090,0.99860432,0.0000,07/21.4850/2019,2000,g 11.5,4.0
# From MPEC 2023-A50
C/2019 L1 (PANSTARRS),e,9.9763,254.4291,50.0619,9.836839,0.0319463,0.70501143,49.9334,11/20.0/2023,2000,g 13.5,4.0
# From MPC115886
C/2019 L2 (NEOWISE),e,152.2054,12.5519,18.8601,25.08398,0.0078453,0.93517010,13.2795,11/20.0/2023,2000,g 16.0,4.0
# From MPEC 2023-HD1
P/2019 LD2 (ATLAS),e,11.6119,179.5190,118.9309,5.207453,0.0829404,0.12674738,113.1485,11/20.0/2023,2000,g 12.0,4.0
# From MPEC 2023-R20
C/2019 L3 (ATLAS),h,01/09.7529/2022,48.3458,290.7606,171.6419,1.002356,3.554658,2000,4.5,4.0
# From MPEC 2020-K19
P/2019 LM4 (Palomar),e,36.4155,72.8377,68.2824,5.705413,0.0723225,0.58513907,116.8725,11/20.0/2023,2000,g  9.5,4.0
# From MPC118095
C/2019 LB7 (Kleyna),e,164.2903,3.9022,336.6310,34.78366,0.0048044,0.92829581,8.1658,11/20.0/2023,2000,g 17.0,4.0
# From MPEC 2022-O08
P/2019 M2 (ATLAS),e,12.2694,307.5900,332.5590,3.029444,0.1869217,0.64729400,301.4607,11/20.0/2023,2000,g 21.2,4.0
# From MPC118095
C/2019 M3 (ATLAS),e,99.5447,154.9544,87.9103,5203,0.0000026,0.99953414,0.0000,12/31.5552/2018,2000,g 12.2,4.0
# From MPEC 2023-JA2
C/2019 M4 (TESS),h,09/12.0068/2019,65.6786,52.6492,260.3736,1.003028,9.189355,2000,5.0,4.0
# From MPEC 2023-C45
C/2019 N1 (ATLAS),e,82.4383,13.5671,193.3928,1295,0.0000212,0.99868308,0.0000,12/01.0592/2020,2000,g  7.5,4.0
# From MPEC 2023-CD8
A/2019 N2,e,89.3635,276.1612,347.1768,1520,0.0000166,0.99871894,0.0000,08/22.6989/2019,2000,g 12.5,2.0
# From MPEC 2022-A21
C/2019 NJ3 (Lemmon),h,10/22.7680/2020,99.4026,142.4790,246.8963,1.001965,4.363566,2000,9.0,4.0
# From MPEC 2023-SQ0
A/2019 O2,e,93.3123,48.2577,129.6205,58.18223,0.0022208,0.83358087,0.5045,11/20.0/2023,2000,g  9.5,2.0
# From MPEC 2023-VM5
C/2019 O3 (Palomar),h,03/09.6619/2021,89.8145,300.4383,60.1338,1.004379,8.821365,2000,3.5,4.0
# From MPEC 2021-P47
A/2019 O4,e,15.0927,354.9277,61.9186,33.30310,0.0051283,0.89038803,7.0678,11/20.0/2023,2000,g 15.5,2.0
# From MPEC 2023-A50
C/2019 Q1 (Lemmon),h,07/21.1092/2020,155.7316,42.4561,56.2259,1.001312,5.004537,2000,8.5,4.0
# From MPC117072
A/2019 Q2,e,159.0221,188.0262,176.4323,58.20161,0.0022197,0.97828603,0.0000,07/22.3262/2019,2000,g 18.0,2.0
# From MPC117072
P/2019 S2 (PANSTARRS),e,10.4653,93.1880,217.1065,4.744310,0.0953772,0.20528238,165.3001,11/20.0/2023,2000,g 13.5,4.0
# From MPEC 2022-CN4
P/2019 S3 (PANSTARRS),e,8.6945,150.1722,213.0525,3.415233,0.1561614,0.47109759,241.3313,11/20.0/2023,2000,g 18.3,4.0
# From MPEC 2021-S45
C/2019 S4 (Lemmon),e,92.0999,63.1577,71.3706,237.5353,0.0002692,0.98550868,0.0000,04/08.2707/2020,2000,g 11.0,4.0
# From MPEC 2023-N01
A/2019 T1,e,120.8695,6.9447,91.0618,38.82700,0.0040738,0.88976088,4.2329,11/20.0/2023,2000,g 13.0,2.0
# From MPEC 2023-R20
C/2019 T2 (Lemmon),e,111.4546,155.6539,239.4299,5043,0.0000028,0.99947537,0.0000,04/22.6311/2021,2000,g  9.0,4.0
# From MPEC 2023-UR6
C/2019 T3 (ATLAS),e,121.8389,139.5324,112.4567,3418,0.0000049,0.99825833,0.0000,03/04.3010/2021,2000,g  6.8,4.0
# From MPEC 2023-W26
C/2019 T4 (ATLAS),e,53.6312,199.9378,351.1459,913.4757,0.0000357,0.99535722,0.0000,06/08.8030/2022,2000,g  5.0,4.0
# From MPEC 2021-P47
P/2019 T5 (ATLAS),e,33.4886,247.6157,189.5750,7.999482,0.0435623,0.80973616,68.4222,11/20.0/2023,2000,g 15.0,4.0
# From MPEC 2021-P47
P/2019 T6 (PANSTARRS),e,18.6976,71.2531,328.9897,5.439019,0.0777004,0.62308406,114.3831,11/20.0/2023,2000,g 15.5,4.0
# From MPC118096
P/2019 U4 (PANSTARRS),e,11.6990,200.0208,181.0316,3.519880,0.1492493,0.47602535,227.1425,11/20.0/2023,2000,g 19.0,4.0
# From MPEC 2023-W26
C/2019 U5 (PANSTARRS),h,03/29.7589/2023,113.5170,2.6355,181.4791,1.001181,3.624017,2000,4.5,4.0
# From MPEC 2022-H04
C/2019 U6 (Lemmon),e,60.9677,235.7851,329.5288,326.4785,0.0001671,0.99720620,0.0000,06/18.3153/2020,2000,g 10.0,4.0
# From MPEC 2022-N37
C/2019 V1 (Borisov),e,61.9241,83.1538,51.1683,1677,0.0000144,0.99815510,0.0000,07/16.6314/2020,2000,g 11.0,4.0
# From MPEC 2022-L66
P/2019 V2 (Groeller),e,11.8079,189.1811,335.6816,7.496860,0.0480159,0.33120491,54.2153,11/20.0/2023,2000,g 10.0,4.0
# From MPEC 2023-A50
P/2019 W1 (PANSTARRS),e,23.4758,35.3767,18.7636,4.548857,0.1015899,0.26726667,168.1376,11/20.0/2023,2000,g 12.9,4.0
# From MPEC 2021-P47
P/2019 X1 (Pruyne),e,10.2505,43.6793,36.8210,6.175042,0.0642309,0.30386928,101.5636,11/20.0/2023,2000,g 10.4,4.0
# From MPEC 2020-C98
P/2019 X2 (Pan-STARRS),e,15.8949,250.8389,213.4479,3.636317,0.1421384,0.49995146,204.8497,11/20.0/2023,2000,g 18.0,4.0
# From MPC119999
C/2019 Y1 (ATLAS),e,73.3837,31.5441,57.9146,86.95574,0.0012155,0.99047285,0.0000,03/16.2679/2020,2000,g 13.7,4.0
# From MPEC 2020-C98
P/2019 Y3 (Catalina),e,24.6038,139.3077,2.5843,3.013950,0.1883649,0.69114313,271.6163,11/20.0/2023,2000,g 18.5,4.0
# From MPEC 2022-YN2
C/2019 Y4 (ATLAS),e,45.1451,120.6958,177.4493,350.7358,0.0001500,0.99927047,0.0000,05/30.7124/2020,2000,g 11.8,6.0
# From MPEC 2020-L06
C/2019 Y4-A (ATLAS),h,05/30.7428/2020,45.5862,121.0586,177.2828,1.001417,0.254027,2000,11.6,6.0
# From MPEC 2023-J29
C/2019 Y4-B (ATLAS),h,05/30.7185/2020,45.2754,120.8023,177.3933,1.000015,0.255340,2000,12.1,6.0
# From MPEC 2020-L06
C/2019 Y4-C (ATLAS),h,05/30.6959/2020,45.3688,120.7854,177.3161,1.002142,0.255099,2000,12.7,6.0
# From MPEC 2020-L06
C/2019 Y4-D (ATLAS),e,45.4154,121.1566,177.4547,68.32188,0.0017453,0.99627624,0.0000,05/30.8199/2020,2000,g 12.5,6.0
# From MPEC 2023-A50
C/2019 Y5 (PANSTARRS),e,82.7618,51.7509,303.5865,733.5511,0.0000496,0.99328885,0.0000,08/17.6834/2019,2000,g 11.0,4.0
# From MPEC 2023-A50
A/2020 A1,e,149.0350,119.1695,302.4635,25.58013,0.0076182,0.93485171,11.0393,11/20.0/2023,2000,g 18.0,2.0
# From MPEC 2022-YN2
C/2020 A2 (Iwamoto),e,120.5923,286.2680,68.0587,1281,0.0000215,0.99924008,0.0000,01/08.3906/2020,2000,g 13.5,4.0
# From MPEC 2023-A50
C/2020 A3 (ATLAS),h,06/28.7929/2019,146.6557,120.8050,268.3347,1.000505,5.757524,2000,8.0,4.0
# From MPEC 2022-P91
P/2020 A4 (PANSTARRS-Lemmon),e,24.9913,312.3639,144.7743,8.195022,0.0420125,0.65421620,61.2403,11/20.0/2023,2000,g 15.0,4.0
# From MPEC 2020-N08
A/2020 B1,e,18.5208,309.9330,154.7272,51.52685,0.0026647,0.96624441,3.7955,11/20.0/2023,2000,g 21.0,2.0
# From MPEC 2020-HN5
C/2020 B2 (Lemmon),e,55.7531,354.2866,143.5986,67.66668,0.0017707,0.95921479,2.4672,11/20.0/2023,2000,g 10.0,4.0
# From MPEC 2022-N37
C/2020 B3 (Rankin),e,20.7090,185.8365,324.8866,935.6953,0.0000344,0.99643740,0.0000,10/19.6093/2019,2000,g 13.0,4.0
# From MPEC 2023-KD6
P/2020 B4 (Sheppard),e,11.6084,185.9772,342.0090,7.967008,0.0438290,0.19198120,32.0645,11/20.0/2023,2000,g 10.5,4.0
# From MPEC 2023-W26
C/2020 F2 (ATLAS),h,07/14.3359/2022,163.5892,250.2984,48.3078,1.005066,8.815845,2000,4.5,4.0
# From MPEC 2021-O56
C/2020 F3 (NEOWISE),e,29.1022,61.0831,37.3049,362.2475,0.0001430,0.99918871,0.0000,07/04.0329/2020,2000,g  7.5,5.2
# From MPEC 2023-W26
C/2020 F5 (MASTER),e,52.2060,350.5003,310.6814,172.7348,0.0004341,0.97495687,0.0000,03/17.2360/2021,2000,g  6.5,3.2
# From MPEC 2020-L06
C/2020 F6 (PANSTARRS),e,174.5830,207.9020,344.5005,387.8491,0.0001290,0.99096866,0.0000,04/11.5829/2020,2000,g 14.5,2.8
# From MPEC 2023-J95
C/2020 F7 (Lemmon),e,93.9545,321.8595,227.9471,561.4954,0.0000741,0.99050337,0.0000,11/13.6390/2021,2000,g  7.0,4.0
# From MPEC 2023-J29
C/2020 F8 (SWAN),h,05/27.0610/2020,110.5982,259.8511,68.0756,1.000164,0.429749,2000,10.0,4.0
# From MPEC 2020-L06
P/2020 G1 (Pimentel),e,18.5097,240.1073,207.6160,3.607960,0.1438174,0.86057036,193.0122,11/20.0/2023,2000,g 17.0,4.0
# From MPEC 2022-YB4
C/2020 H2 (Pruyne),e,124.8658,277.6690,26.6448,187.2701,0.0003846,0.99556624,0.0000,04/27.7928/2020,2000,g 14.0,3.2
# From MPEC 2020-HM1
C/2020 H3 (Wierzchos),p,06/05.7162/2020,62.5292,30.4456,2.300288,270.6227,2000,13.5,4.0
# From MPEC 2020-L06
C/2020 H4 (Leonard),e,84.4993,307.6240,117.5126,47.82401,0.0029801,0.98066871,0.0000,08/29.6259/2020,2000,g 15.0,3.2
# From MPEC 2023-VM5
C/2020 H5 (Robinson),e,70.2563,210.6276,326.3129,4209,0.0000036,0.99778096,0.0000,12/10.3986/2020,2000,g  5.0,4.0
# From MPEC 2023-SQ0
C/2020 H6 (ATLAS),e,79.9778,213.7208,20.2754,4502,0.0000033,0.99895584,0.0000,09/30.4245/2021,2000,g  8.0,3.2
# From MPEC 2020-KB7
